{
  "type": "FeatureCollection",
  "features": [
    {
      "type": "Feature",
      "properties": {
        "norad_id": 66822,
        "name": "STARLINK-35958",
        "group": "last-30-days",
        "lat": -1.9113037353171092,
        "lon": 179.54958535094187,
        "alt_km": 408.4973771386085,
        "timestamp": "2025-12-19T08:58:48.083480+00:00",
        "meta_object_name": "STARLINK-35958",
        "meta_object_id": "2025-280B",
        "meta_epoch": "2025-12-18T22:00:00.999936",
        "meta_mean_motion": 15.55805554,
        "meta_eccentricity": 0.00036948,
        "meta_inclination": 69.9995,
        "meta_ra_of_asc_node": 181.5028,
        "meta_arg_of_pericenter": 265.6667,
        "meta_mean_anomaly": 52.4847,
        "meta_ephemeris_type": 0,
        "meta_classification_type": "U",
        "meta_norad_cat_id": 66822,
        "meta_element_set_no": 999,
        "meta_rev_at_epoch": 389,
        "meta_bstar": -0.033184681,
        "meta_mean_motion_dot": -0.02054945,
        "meta_mean_motion_ddot": 0,
        "tle_line1": "1 66822U 25280B   25352.91667824 -.02054945  00000+0 -33185-1 0  9992",
        "tle_line2": "2 66822  69.9995 181.5028 0003694 265.6667  52.4847 15.55805554  3891"
      },
      "geometry": {
        "type": "Point",
        "coordinates": [
          179.54958535094187,
          -1.9113037353171092
        ]
      }
    },
    {
      "type": "Feature",
      "properties": {
        "norad_id": 66823,
        "name": "STARLINK-35957",
        "group": "last-30-days",
        "lat": -0.11198854356810778,
        "lon": -179.79765099707177,
        "alt_km": 408.35195663660124,
        "timestamp": "2025-12-19T08:58:48.083490+00:00",
        "meta_object_name": "STARLINK-35957",
        "meta_object_id": "2025-280C",
        "meta_epoch": "2025-12-18T22:00:00.999936",
        "meta_mean_motion": 15.55804092,
        "meta_eccentricity": 0.00034984,
        "meta_inclination": 69.9995,
        "meta_ra_of_asc_node": 181.4999,
        "meta_arg_of_pericenter": 265.3342,
        "meta_mean_anomaly": 54.7369,
        "meta_ephemeris_type": 0,
        "meta_classification_type": "U",
        "meta_norad_cat_id": 66823,
        "meta_element_set_no": 999,
        "meta_rev_at_epoch": 389,
        "meta_bstar": -0.033190588,
        "meta_mean_motion_dot": -0.0205501,
        "meta_mean_motion_ddot": 0,
        "tle_line1": "1 66823U 25280C   25352.91667824 -.02055010  00000+0 -33191-1 0  9994",
        "tle_line2": "2 66823  69.9995 181.4999 0003498 265.3342  54.7369 15.55804092  3897"
      },
      "geometry": {
        "type": "Point",
        "coordinates": [
          -179.79765099707177,
          -0.11198854356810778
        ]
      }
    },
    {
      "type": "Feature",
      "properties": {
        "norad_id": 66824,
        "name": "STARLINK-35896",
        "group": "last-30-days",
        "lat": 1.6907747103755368,
        "lon": -179.14282155367704,
        "alt_km": 408.2309441102252,
        "timestamp": "2025-12-19T08:58:48.083500+00:00",
        "meta_object_name": "STARLINK-35896",
        "meta_object_id": "2025-280D",
        "meta_epoch": "2025-12-18T22:00:00.999936",
        "meta_mean_motion": 15.55800286,
        "meta_eccentricity": 0.00035465,
        "meta_inclination": 69.9995,
        "meta_ra_of_asc_node": 181.4979,
        "meta_arg_of_pericenter": 264.0603,
        "meta_mean_anomaly": 57.927,
        "meta_ephemeris_type": 0,
        "meta_classification_type": "U",
        "meta_norad_cat_id": 66824,
        "meta_element_set_no": 999,
        "meta_rev_at_epoch": 389,
        "meta_bstar": -0.033035064,
        "meta_mean_motion_dot": -0.02046177,
        "meta_mean_motion_ddot": 0,
        "tle_line1": "1 66824U 25280D   25352.91667824 -.02046177  00000+0 -33035-1 0  9996",
        "tle_line2": "2 66824  69.9995 181.4979 0003546 264.0603  57.9270 15.55800286  3893"
      },
      "geometry": {
        "type": "Point",
        "coordinates": [
          -179.14282155367704,
          1.6907747103755368
        ]
      }
    },
    {
      "type": "Feature",
      "properties": {
        "norad_id": 66825,
        "name": "STARLINK-35476",
        "group": "last-30-days",
        "lat": 3.495216920333647,
        "lon": -178.48667680546862,
        "alt_km": 407.89137527738967,
        "timestamp": "2025-12-19T08:58:48.083510+00:00",
        "meta_object_name": "STARLINK-35476",
        "meta_object_id": "2025-280E",
        "meta_epoch": "2025-12-18T22:00:00.999936",
        "meta_mean_motion": 15.5579604,
        "meta_eccentricity": 0.00036858,
        "meta_inclination": 69.9998,
        "meta_ra_of_asc_node": 181.4953,
        "meta_arg_of_pericenter": 267.9212,
        "meta_mean_anomaly": 55.9836,
        "meta_ephemeris_type": 0,
        "meta_classification_type": "U",
        "meta_norad_cat_id": 66825,
        "meta_element_set_no": 999,
        "meta_rev_at_epoch": 374,
        "meta_bstar": -0.032884333,
        "meta_mean_motion_dot": -0.02000178,
        "meta_mean_motion_ddot": 0,
        "tle_line1": "1 66825U 25280E   25352.91667824 -.02000178  00000+0 -32884-1 0  9999",
        "tle_line2": "2 66825  69.9998 181.4953 0003685 267.9212  55.9836 15.55796040  3743"
      },
      "geometry": {
        "type": "Point",
        "coordinates": [
          -178.48667680546862,
          3.495216920333647
        ]
      }
    },
    {
      "type": "Feature",
      "properties": {
        "norad_id": 66826,
        "name": "STARLINK-35898",
        "group": "last-30-days",
        "lat": 5.293664830187743,
        "lon": -177.8298304607506,
        "alt_km": 407.706040680755,
        "timestamp": "2025-12-19T08:58:48.083522+00:00",
        "meta_object_name": "STARLINK-35898",
        "meta_object_id": "2025-280F",
        "meta_epoch": "2025-12-18T22:00:00.999936",
        "meta_mean_motion": 15.55797517,
        "meta_eccentricity": 0.00036373,
        "meta_inclination": 69.9998,
        "meta_ra_of_asc_node": 181.4929,
        "meta_arg_of_pericenter": 268.3221,
        "meta_mean_anomaly": 57.499,
        "meta_ephemeris_type": 0,
        "meta_classification_type": "U",
        "meta_norad_cat_id": 66826,
        "meta_element_set_no": 999,
        "meta_rev_at_epoch": 389,
        "meta_bstar": -0.032961752,
        "meta_mean_motion_dot": -0.02004354,
        "meta_mean_motion_ddot": 0,
        "tle_line1": "1 66826U 25280F   25352.91667824 -.02004354  00000+0 -32962-1 0  9997",
        "tle_line2": "2 66826  69.9998 181.4929 0003637 268.3221  57.4990 15.55797517  3893"
      },
      "geometry": {
        "type": "Point",
        "coordinates": [
          -177.8298304607506,
          5.293664830187743
        ]
      }
    },
    {
      "type": "Feature",
      "properties": {
        "norad_id": 66827,
        "name": "STARLINK-35959",
        "group": "last-30-days",
        "lat": 7.094682818306095,
        "lon": -177.1680235406505,
        "alt_km": 407.59952880267156,
        "timestamp": "2025-12-19T08:58:48.083533+00:00",
        "meta_object_name": "STARLINK-35959",
        "meta_object_id": "2025-280G",
        "meta_epoch": "2025-12-18T22:00:00.999936",
        "meta_mean_motion": 15.55799597,
        "meta_eccentricity": 0.00037073,
        "meta_inclination": 69.9997,
        "meta_ra_of_asc_node": 181.4904,
        "meta_arg_of_pericenter": 266.8278,
        "meta_mean_anomaly": 60.9078,
        "meta_ephemeris_type": 0,
        "meta_classification_type": "U",
        "meta_norad_cat_id": 66827,
        "meta_element_set_no": 999,
        "meta_rev_at_epoch": 389,
        "meta_bstar": -0.032977042,
        "meta_mean_motion_dot": -0.02005367,
        "meta_mean_motion_ddot": 0,
        "tle_line1": "1 66827U 25280G   25352.91667824 -.02005367  00000+0 -32977-1 0  9999",
        "tle_line2": "2 66827  69.9997 181.4904 0003707 266.8278  60.9078 15.55799597  3895"
      },
      "geometry": {
        "type": "Point",
        "coordinates": [
          -177.1680235406505,
          7.094682818306095
        ]
      }
    },
    {
      "type": "Feature",
      "properties": {
        "norad_id": 66828,
        "name": "STARLINK-35982",
        "group": "last-30-days",
        "lat": 10.69065580712886,
        "lon": -175.8280274800576,
        "alt_km": 407.20471242233543,
        "timestamp": "2025-12-19T08:58:48.083544+00:00",
        "meta_object_name": "STARLINK-35982",
        "meta_object_id": "2025-280H",
        "meta_epoch": "2025-12-18T22:00:00.999936",
        "meta_mean_motion": 15.55799073,
        "meta_eccentricity": 0.00037457,
        "meta_inclination": 69.9994,
        "meta_ra_of_asc_node": 181.4858,
        "meta_arg_of_pericenter": 267.6278,
        "meta_mean_anomaly": 63.9413,
        "meta_ephemeris_type": 0,
        "meta_classification_type": "U",
        "meta_norad_cat_id": 66828,
        "meta_element_set_no": 999,
        "meta_rev_at_epoch": 389,
        "meta_bstar": -0.033002582,
        "meta_mean_motion_dot": -0.02006727,
        "meta_mean_motion_ddot": 0,
        "tle_line1": "1 66828U 25280H   25352.91667824 -.02006727  00000+0 -33003-1 0  9992",
        "tle_line2": "2 66828  69.9994 181.4858 0003745 267.6278  63.9413 15.55799073  3897"
      },
      "geometry": {
        "type": "Point",
        "coordinates": [
          -175.8280274800576,
          10.69065580712886
        ]
      }
    }
  ]
}